ONEWEB-0340             
1 49206U 21083W   24175.34827681  .00000070  00000+0  14558-3 0  9995
2 49206  87.9149 119.5463 0001965  83.5586 276.5770 13.18684636134576
ONEWEB-0341             
1 49207U 21083X   24175.35618325  .00000125  00000+0  28445-3 0  9991
2 49207  87.9148 119.5585 0001742  60.5129 299.6177 13.18685801134596
ONEWEB-0342             
1 49208U 21083Y   24175.19170832  .00000060  00000+0  11673-3 0  9993
2 49208  87.9202  58.5194 0002045  77.2108 282.9254 13.20772870141219
ONEWEB-0343             
1 49209U 21083Z   24175.35143255  .00000068  00000+0  13867-3 0  9996
2 49209  87.9142 119.5662 0001964  62.5710 297.5622 13.18685905135938
ONEWEB-0344             
1 49210U 21083AA  24175.32955043  .00000414  00000+0  10993-2 0  9992
2 49210  87.8937 104.3337 0001545  73.0073 287.1225 13.13471131135872
ONEWEB-0345             
1 49211U 21083AB  24175.34700648  .00000172  00000+0  43588-3 0  9992
2 49211  87.8935 104.3050 0001492  73.6795 286.4498 13.13471133135888
ONEWEB-0346             
1 49212U 21083AC  24175.36092049  .00000088  00000+0  18931-3 0  9994
2 49212  87.9149 119.5665 0001816  91.3462 268.7878 13.18684757134589
ONEWEB-0348             
1 49213U 21083AD  24175.18223439  .00000124  00000+0  27376-3 0  9998
2 49213  87.9211  58.4938 0001160  88.4606 271.6660 13.20772300141241
